STARLINK-31081          
1 58632U 23203Q   26068.05330521 -.00001326  00000+0 -38670-4 0  9996
2 58632  43.0042  74.1567 0001210 279.3892  80.6822 15.27566603124658
2025-313BC              
1 67298U 25313BC  26068.18968176  .00075331  00000+0  26410-2 0  9997
2 67298  97.3985 144.8110 0008478 328.9209  31.1528 15.29126358  7890
